COMMENT,ORIGINATOR,NORAD_CAT_ID,OBJECT_NAME,OBJECT_TYPE,CLASSIFICATION_TYPE,INTLDES,EPOCH,EPOCH_MICROSECONDS,MEAN_MOTION,ECCENTRICITY,INCLINATION,RA_OF_ASC_NODE,ARG_OF_PERICENTER,MEAN_ANOMALY,EPHEMERIS_TYPE,ELEMENT_SET_NO,REV_AT_EPOCH,BSTAR,MEAN_MOTION_DOT,MEAN_MOTION_DDOT,FILE,TLE_LINE0,TLE_LINE1,TLE_LINE2,OBJECT_ID,OBJECT_NUMBER,SEMIMAJOR_AXIS,PERIOD,APOGEE,PERIGEE
"GENERATED VIA SPACETRACK.ORG API","JSPOC","39093","PSLV R/B","ROCKET BODY","U","13009H","2016-01-11 12:07:43","186944","14.4658656","0.0046191","98.5657","234.5213","123.3794","237.183","0","999","15171","3.6739e-05","8.8e-07","0","1979004","0 PSLV R/B","1 39093U 13009H   16011.50536096  .00000088  00000-0  36739-4 0  9998","2 39093  98.5657 234.5213 0046191 123.3794 237.1830 14.46586560151710","2013-009H","39093","7114.956","99.544","769.685","703.956"
"GENERATED VIA SPACETRACK.ORG API","JSPOC","46","SOLRAD 1 (GREB)","PAYLOAD","U","60007B","2016-01-11 12:07:53","554944","14.48767987","0.0218641","66.691","99.62","258.1084","99.5435","0","999","90453","0.00011243","4.58e-06","0","1979003","0 SOLRAD 1 (GREB)","1 00046U 60007B   16011.50548096  .00000458  00000-0  11243-3 0  9990","2 00046  66.6910  99.6200 0218641 258.1084  99.5435 14.48767987904533","1960-007B","46","7107.812","99.394","885.083","574.271"
"GENERATED VIA SPACETRACK.ORG API","JSPOC","27450","IRIDIUM 97","PAYLOAD","U","02031A","2016-01-11 12:07:53","12352","14.34216442","0.0002052","86.3974","177.3836","95.3919","264.7511","0","999","71531","-5.3945e-06","5e-08","0","1979040","0 IRIDIUM 97","1 27450U 02031A   16011.50547468  .00000005  00000-0 -53945-5 0  9999","2 27450  86.3974 177.3836 0002052  95.3919 264.7511 14.34216442715311","2002-031A","27450","7155.808","100.403","779.141","776.205"
"GENERATED VIA SPACETRACK.ORG API","JSPOC","5977","DELTA 1 R/B(2)","ROCKET BODY","U","69011B","2016-01-11 12:07:57","687456","4.3061688","0.5826897","29.53","215.6397","275.3724","24.4788","0","999","33028","0.00087379","4.876e-05","0","1978889","0 DELTA 1 R/B(2)","1 05977U 69011B   16011.50552879  .00004876  00000-0  87379-3 0  9997","2 05977  29.5300 215.6397 5826897 275.3724  24.4788  4.30616880330282","1969-011B","5977","15959.078","334.403","18880.133","281.752"
"GENERATED VIA SPACETRACK.ORG API","JSPOC","40949","GOMX 3","PAYLOAD","U","98067HA","2016-01-11 12:08:08","795040","15.6414649","0.0006678","51.6406","120.7052","349.1874","10.8976","0","999","1528","0.0002539","0.00024137","0","1978915","0 GOMX 3","1 40949U 98067HA  16011.50565735  .00024137  00000-0  25390-3 0  9990","2 40949  51.6406 120.7052 0006678 349.1874  10.8976 15.64146490 15287","1998-067HA","40949","6753.831","92.062","380.206","371.186"
"GENERATED VIA SPACETRACK.ORG API","JSPOC","29710","CARTOSAT 2AT","PAYLOAD","U","07001B","2016-01-11 12:08:15","400320","14.78649854","0.000241","97.999","72.1157","57.0144","303.1304","0","999","48595","2.5613e-05","1.36e-06","0","1978981","0 CARTOSAT 2AT","1 29710U 07001B   16011.50573380  .00000136  00000-0  25613-4 0  9998","2 29710  97.9990  72.1157 0002410  57.0144 303.1304 14.78649854485956","2007-001B","29710","7011.726","97.386","635.280","631.901"
"GENERATED VIA SPACETRACK.ORG API","JSPOC","3530","COSMOS 252","PAYLOAD","U","68097A","2016-01-11 12:08:17","780640","12.87368994","0.0992714","62.3247","139.484","352.713","6.0281","0","999","21498","9.1588e-06","-8.6e-07","0","1978903","0 COSMOS 252","1 03530U 68097A   16011.50576135 -.00000086  00000-0  91588-5 0  9993","2 03530  62.3247 139.4840 0992714 352.7130   6.0281 12.87368994214987","1968-097A","3530","7690.120","111.856","2075.394","548.576"
"GENERATED VIA SPACETRACK.ORG API","JSPOC","40056","NLS 7.2/CANX 5","PAYLOAD","U","14034D","2016-01-11 12:08:22","729632","14.74318148","0.0013196","98.2043","96.8444","292.1531","67.8276","0","999","8252","6.2943e-05","3.64e-06","0","1978980","0 NLS 7.2/CANX 5","1 40056U 14034D   16011.50581863  .00000364  00000-0  62943-4 0  9993","2 40056  98.2043  96.8444 0013196 292.1531  67.8276 14.74318148 82525","2014-034D","40056","7025.453","97.672","656.589","638.047"
"GENERATED VIA SPACETRACK.ORG API","JSPOC","39260","FENGYUN 3C","PAYLOAD","U","13052A","2016-01-11 12:08:23","659296","14.19596775","0.0001527","98.7103","85.5306","75.0716","285.0629","0","999","11922","3.5038e-05","3e-07","0","1978938","0 FENGYUN 3C","1 39260U 13052A   16011.50582939  .00000030  00000-0  35038-4 0  9997","2 39260  98.7103  85.5306 0001527  75.0716 285.0629 14.19596775119229","2013-052A","39260","7204.853","101.437","827.818","825.618"
"GENERATED VIA SPACETRACK.ORG API","JSPOC","10933","COSMOS 1016","PAYLOAD","U","78056D","2016-01-11 12:08:29","791968","12.45253187","0.0017841","74.026","147.9512","262.2883","162.3702","0","999","70921","-8.9262e-05","-2.9e-07","0","1978998","0 COSMOS 1016","1 10933U 78056D   16011.50590037 -.00000029  00000-0 -89262-4 0  9994","2 10933  74.0260 147.9512 0017841 262.2883 162.3702 12.45253187709216","1978-056D","10933","7862.549","115.639","1498.442","1470.387"
"GENERATED VIA SPACETRACK.ORG API","JSPOC","15755","COSMOS 1656","PAYLOAD","U","85042A","2016-01-11 12:08:33","59616","14.20382799","0.0034111","71.1102","24.4378","146.5943","213.7345","0","999","58620","-9.5822e-07","-4.9e-07","0","1979502","0 COSMOS 1656","1 15755U 85042A   16011.50593819 -.00000049 +00000-0 -95822-6 0  9998","2 15755 071.1102 024.4378 0034111 146.5943 213.7345 14.20382799586208","1985-042A","15755","7202.195","101.381","848.627","799.493"
"GENERATED VIA SPACETRACK.ORG API","JSPOC","39161","ESTCUBE 1","PAYLOAD","U","13021C","2016-01-11 12:08:36","45600","14.71492703","0.0010103","98.0604","97.5186","18.7858","341.3723","0","999","14387","9.1471e-05","5.18e-06","0","1978884","0 ESTCUBE 1","1 39161U 13021C   16011.50597275  .00000518  00000-0  91471-4 0  9996","2 39161  98.0604  97.5186 0010103  18.7858 341.3723 14.71492703143871","2013-021C","39161","7034.443","97.859","663.415","649.201"
"GENERATED VIA SPACETRACK.ORG API","JSPOC","6125","SL-8 R/B","ROCKET BODY","U","72057J","2016-01-11 12:08:53","881152","12.30894478","0.0069645","74.0144","16.9947","321.4551","197.925","0","999","95346","-0.00047016","-7.2e-07","0","1978883","0 SL-8 R/B","1 06125U 72057J   16011.50617918 -.00000072  00000-0 -47016-3 0  9993","2 06125  74.0144  16.9947 0069645 321.4551 197.9250 12.30894478953469","1972-057J","6125","7923.577","116.988","1600.625","1490.258"
"GENERATED VIA SPACETRACK.ORG API","JSPOC","23197","SL-6 R/B(2)","ROCKET BODY","U","94048D","2016-01-11 12:09:25","985664","2.0385263","0.6202306","67.9847","15.9058","180.4221","344.5805","0","999","15959","0","-3.99e-06","0","1979502","0 SL-6 R/B(2)","1 23197U 94048D   16011.50655076 -.00000399 +00000-0 +00000-0 0  9992","2 23197 067.9847 015.9058 6202306 180.4221 344.5805 02.03852630159597","1994-048D","23197","26273.885","706.392","36191.617","3599.882"
"GENERATED VIA SPACETRACK.ORG API","JSPOC","25561","PEGASUS R/B","ROCKET BODY","U","98071B","2016-01-11 12:09:31","455648","14.90944894","0.0009995","69.9149","163.788","248.1375","111.8717","0","999","92707","7.9251e-05","6.96e-06","0","1978880","0 PEGASUS R/B","1 25561U 98071B   16011.50661407  .00000696  00000-0  79251-4 0  9991","2 25561  69.9149 163.7880 0009995 248.1375 111.8717 14.90944894927077","1998-071B","25561","6973.124","96.583","601.959","588.020"
"GENERATED VIA SPACETRACK.ORG API","JSPOC","21941","ARIANE 44L+ R/B","ROCKET BODY","U","92021C","2016-01-11 12:09:31","725216","6.16765193","0.4771902","4.0177","352.2507","150.2221","248.6315","0","999","30540","0.0012985","0.00111993","0","1979069","0 ARIANE 44L+ R/B","1 21941U 92021C   16011.50661719  .00111993 -70106-7  12985-2 0  9998","2 21941   4.0177 352.2507 4771902 150.2221 248.6315  6.16765193305400","1992-021C","21941","12559.970","233.476","12175.329","188.340"
"GENERATED VIA SPACETRACK.ORG API","JSPOC","33410","CZ-4B R/B","ROCKET BODY","U","08053C","2016-01-11 12:09:36","996480","14.97247171","0.0123333","97.6588","343.5151","144.5578","216.3919","0","999","39254","3.6975e-05","4.33e-06","0","1978991","0 CZ-4B R/B","1 33410U 08053C   16011.50667820  .00000433  00000-0  36975-4 0  9994","2 33410  97.6588 343.5151 0123333 144.5578 216.3919 14.97247171392544","2008-053C","33410","6953.543","96.176","661.168","489.648"
"GENERATED VIA SPACETRACK.ORG API","JSPOC","13765","COSMOS 1433","PAYLOAD","U","83002E","2016-01-11 12:09:38","118816","12.51895344","0.0014293","74.0258","296.0785","308.7615","95.7736","0","999","50733","0.00013467","5e-08","0","1978899","0 COSMOS 1433","1 13765U 83002E   16011.50669119  .00000005  00000-0  13467-3 0  9990","2 13765  74.0258 296.0785 0014293 308.7615  95.7736 12.51895344507333","1983-002E","13765","7834.714","115.025","1467.777","1445.381"
"GENERATED VIA SPACETRACK.ORG API","JSPOC","22657","NAVSTAR 32 (USA 91)","PAYLOAD","U","93032A","2016-01-11 12:09:42","512256","2.0055162","0.0081704","54.6707","55.4868","340.7963","87.9279","0","999","16229","0","-2.7e-07","0","1979017","0 NAVSTAR 32 (USA 91)","1 22657U 93032A   16011.50674204 -.00000027  00000-0  00000+0 0  9995","2 22657  54.6707  55.4868 0081704 340.7963  87.9279  2.00551620162294","1993-032A","22657","26561.405","718.019","20400.288","19966.253"
"GENERATED VIA SPACETRACK.ORG API","JSPOC","20028","SL-12 R/B(2)","ROCKET BODY","U","89039E","2016-01-11 12:09:42","553728","2.13484541","0.0010008","64.8013","79.5622","308.0814","110.6244","0","999","19300","0","5e-08","0","1979502","0 SL-12 R/B(2)","1 20028U 89039E   16011.50674252 +.00000005 +00000-0 +00000-0 0  9996","2 20028 064.8013 079.5622 0010008 308.0814 110.6244 02.13484541193003","1989-039E","20028","25477.543","674.521","19124.906","19073.910"
